CCSDS_OMM_VERS = 2.0
CREATION_DATE  = 
ORIGINATOR     = 

OBJECT_NAME    = STARLINK-36773
OBJECT_ID      = 2026-032E
CENTER_NAME    = EARTH
REF_FRAME      = TEME
TIME_SYSTEM    = UTC
MEAN_ELEMENT_THEORY = SGP/SGP4

EPOCH          = 2026-03-04T10:00:01.999584
MEAN_MOTION    = 15.75099959
ECCENTRICITY   = .0001259
INCLINATION    = 97.2836
RA_OF_ASC_NODE = 249.6522
ARG_OF_PERICENTER = 79.4470
MEAN_ANOMALY   = 285.8037

EPHEMERIS_TYPE = 0
CLASSIFICATION_TYPE = U
NORAD_CAT_ID   = 67801
ELEMENT_SET_NO = 999
REV_AT_EPOCH   = 387
BSTAR          = .71522E-3
MEAN_MOTION_DOT = .107482E-2
MEAN_MOTION_DDOT = 0

CCSDS_OMM_VERS = 2.0
CREATION_DATE  = 
ORIGINATOR     = 

OBJECT_NAME    = STARLINK-36739
OBJECT_ID      = 2026-032F
CENTER_NAME    = EARTH
REF_FRAME      = TEME
TIME_SYSTEM    = UTC
MEAN_ELEMENT_THEORY = SGP/SGP4

EPOCH          = 2026-03-04T11:05:50.068320
MEAN_MOTION    = 15.80165527
ECCENTRICITY   = .0001921
INCLINATION    = 97.2834
RA_OF_ASC_NODE = 249.7395
ARG_OF_PERICENTER = 153.1218
MEAN_ANOMALY   = 207.0150

EPHEMERIS_TYPE = 0
CLASSIFICATION_TYPE = U
NORAD_CAT_ID   = 67802
ELEMENT_SET_NO = 999
REV_AT_EPOCH   = 396
BSTAR          = -.22362E-2
MEAN_MOTION_DOT = -.39763E-2
MEAN_MOTION_DDOT = 0

CCSDS_OMM_VERS = 2.0
CREATION_DATE  = 
ORIGINATOR     = 

OBJECT_NAME    = STARLINK-36768
OBJECT_ID      = 2026-032G
CENTER_NAME    = EARTH
REF_FRAME      = TEME
TIME_SYSTEM    = UTC
MEAN_ELEMENT_THEORY = SGP/SGP4

EPOCH          = 2026-03-04T10:00:01.999584
MEAN_MOTION    = 15.75121659
ECCENTRICITY   = .0001502
INCLINATION    = 97.2837
RA_OF_ASC_NODE = 249.6663
ARG_OF_PERICENTER = 82.4073
MEAN_ANOMALY   = 316.8279

EPHEMERIS_TYPE = 0
CLASSIFICATION_TYPE = U
NORAD_CAT_ID   = 67803
ELEMENT_SET_NO = 999
REV_AT_EPOCH   = 393
BSTAR          = .63158E-3
MEAN_MOTION_DOT = .94846E-3
MEAN_MOTION_DDOT = 0

CCSDS_OMM_VERS = 2.0
CREATION_DATE  = 
ORIGINATOR     = 

OBJECT_NAME    = STARLINK-36792
OBJECT_ID      = 2026-032H
CENTER_NAME    = EARTH
REF_FRAME      = TEME
TIME_SYSTEM    = UTC
MEAN_ELEMENT_THEORY = SGP/SGP4

EPOCH          = 2026-03-04T10:00:01.999584
MEAN_MOTION    = 15.75095612
ECCENTRICITY   = .0001576
INCLINATION    = 97.2836
RA_OF_ASC_NODE = 249.6608
ARG_OF_PERICENTER = 69.3576
MEAN_ANOMALY   = 315.8912

EPHEMERIS_TYPE = 0
CLASSIFICATION_TYPE = U
NORAD_CAT_ID   = 67804
ELEMENT_SET_NO = 999
REV_AT_EPOCH   = 387
BSTAR          = .10251E-2
MEAN_MOTION_DOT = .154944E-2
MEAN_MOTION_DDOT = 0

CCSDS_OMM_VERS = 2.0
CREATION_DATE  = 
ORIGINATOR     = 

OBJECT_NAME    = STARLINK-36782
OBJECT_ID      = 2026-032J
CENTER_NAME    = EARTH
REF_FRAME      = TEME
TIME_SYSTEM    = UTC
MEAN_ELEMENT_THEORY = SGP/SGP4

EPOCH          = 2026-03-04T11:03:11.417184
MEAN_MOTION    = 15.80997775
ECCENTRICITY   = .0001535
INCLINATION    = 97.2829
RA_OF_ASC_NODE = 249.7416
ARG_OF_PERICENTER = 89.2220
MEAN_ANOMALY   = 270.9224

EPHEMERIS_TYPE = 0
CLASSIFICATION_TYPE = U
NORAD_CAT_ID   = 67805
ELEMENT_SET_NO = 999
REV_AT_EPOCH   = 396
BSTAR          = .23851E-2
MEAN_MOTION_DOT = .487218E-2
MEAN_MOTION_DDOT = 0

CCSDS_OMM_VERS = 2.0
CREATION_DATE  = 
ORIGINATOR     = 

OBJECT_NAME    = STARLINK-36389
OBJECT_ID      = 2026-032K
CENTER_NAME    = EARTH
REF_FRAME      = TEME
TIME_SYSTEM    = UTC
MEAN_ELEMENT_THEORY = SGP/SGP4

EPOCH          = 2026-03-04T10:00:01.999584
MEAN_MOTION    = 15.75118644
ECCENTRICITY   = .0001754
INCLINATION    = 97.2836
RA_OF_ASC_NODE = 249.6869
ARG_OF_PERICENTER = 78.3996
MEAN_ANOMALY   = 10.8282

EPHEMERIS_TYPE = 0
CLASSIFICATION_TYPE = U
NORAD_CAT_ID   = 67806
ELEMENT_SET_NO = 999
REV_AT_EPOCH   = 393
BSTAR          = .62057E-3
MEAN_MOTION_DOT = .93162E-3
MEAN_MOTION_DDOT = 0

CCSDS_OMM_VERS = 2.0
CREATION_DATE  = 
ORIGINATOR     = 

OBJECT_NAME    = STARLINK-36382
OBJECT_ID      = 2026-032L
CENTER_NAME    = EARTH
REF_FRAME      = TEME
TIME_SYSTEM    = UTC
MEAN_ELEMENT_THEORY = SGP/SGP4

EPOCH          = 2026-03-04T10:00:01.999584
MEAN_MOTION    = 15.75138151
ECCENTRICITY   = .0001801
INCLINATION    = 97.2839
RA_OF_ASC_NODE = 249.6923
ARG_OF_PERICENTER = 88.6646
MEAN_ANOMALY   = 12.5557

EPHEMERIS_TYPE = 0
CLASSIFICATION_TYPE = U
NORAD_CAT_ID   = 67807
ELEMENT_SET_NO = 999
REV_AT_EPOCH   = 387
BSTAR          = .87728E-3
MEAN_MOTION_DOT = .132475E-2
MEAN_MOTION_DDOT = 0

CCSDS_OMM_VERS = 2.0
CREATION_DATE  = 
ORIGINATOR     = 

OBJECT_NAME    = STARLINK-36811
OBJECT_ID      = 2026-032M
CENTER_NAME    = EARTH
REF_FRAME      = TEME
TIME_SYSTEM    = UTC
MEAN_ELEMENT_THEORY = SGP/SGP4

EPOCH          = 2026-03-04T10:58:25.516128
MEAN_MOTION    = 15.80996644
ECCENTRICITY   = .0001557
INCLINATION    = 97.2827
RA_OF_ASC_NODE = 249.7457
ARG_OF_PERICENTER = 81.1803
MEAN_ANOMALY   = 278.9642

EPHEMERIS_TYPE = 0
CLASSIFICATION_TYPE = U
NORAD_CAT_ID   = 67808
ELEMENT_SET_NO = 999
REV_AT_EPOCH   = 396
BSTAR          = .235E-2
MEAN_MOTION_DOT = .479577E-2
MEAN_MOTION_DDOT = 0

CCSDS_OMM_VERS = 2.0
CREATION_DATE  = 
ORIGINATOR     = 

OBJECT_NAME    = STARLINK-36795
OBJECT_ID      = 2026-032N
CENTER_NAME    = EARTH
REF_FRAME      = TEME
TIME_SYSTEM    = UTC
MEAN_ELEMENT_THEORY = SGP/SGP4

EPOCH          = 2026-03-04T10:00:01.999584
MEAN_MOTION    = 15.75108492
ECCENTRICITY   = .0001539
INCLINATION    = 97.2834
RA_OF_ASC_NODE = 249.6749
ARG_OF_PERICENTER = 64.3900
MEAN_ANOMALY   = 356.8574

EPHEMERIS_TYPE = 0
CLASSIFICATION_TYPE = U
NORAD_CAT_ID   = 67809
ELEMENT_SET_NO = 999
REV_AT_EPOCH   = 393
BSTAR          = .83641E-3
MEAN_MOTION_DOT = .12604E-2
MEAN_MOTION_DDOT = 0

CCSDS_OMM_VERS = 2.0
CREATION_DATE  = 
ORIGINATOR     = 

OBJECT_NAME    = STARLINK-36807
OBJECT_ID      = 2026-032P
CENTER_NAME    = EARTH
REF_FRAME      = TEME
TIME_SYSTEM    = UTC
MEAN_ELEMENT_THEORY = SGP/SGP4

EPOCH          = 2026-03-04T10:55:32.424960
MEAN_MOTION    = 15.80519875
ECCENTRICITY   = .0001657
INCLINATION    = 97.2826
RA_OF_ASC_NODE = 249.7474
ARG_OF_PERICENTER = 121.3154
MEAN_ANOMALY   = 238.8277

EPHEMERIS_TYPE = 0
CLASSIFICATION_TYPE = U
NORAD_CAT_ID   = 67810
ELEMENT_SET_NO = 999
REV_AT_EPOCH   = 396
BSTAR          = -.61627E-3
MEAN_MOTION_DOT = -.115085E-2
MEAN_MOTION_DDOT = 0

CCSDS_OMM_VERS = 2.0
CREATION_DATE  = 
ORIGINATOR     = 

OBJECT_NAME    = STARLINK-36733
OBJECT_ID      = 2026-032Q
CENTER_NAME    = EARTH
REF_FRAME      = TEME
TIME_SYSTEM    = UTC
MEAN_ELEMENT_THEORY = SGP/SGP4

EPOCH          = 2026-03-04T10:53:40.574976
MEAN_MOTION    = 15.80846539
ECCENTRICITY   = .0001357
INCLINATION    = 97.2832
RA_OF_ASC_NODE = 249.7491
ARG_OF_PERICENTER = 79.0597
MEAN_ANOMALY   = 281.0824

EPHEMERIS_TYPE = 0
CLASSIFICATION_TYPE = U
NORAD_CAT_ID   = 67811
ELEMENT_SET_NO = 999
REV_AT_EPOCH   = 396
BSTAR          = .62802E-3
MEAN_MOTION_DOT = .122021E-2
MEAN_MOTION_DDOT = 0

CCSDS_OMM_VERS = 2.0
CREATION_DATE  = 
ORIGINATOR     = 

OBJECT_NAME    = STARLINK-36377
OBJECT_ID      = 2026-032R
CENTER_NAME    = EARTH
REF_FRAME      = TEME
TIME_SYSTEM    = UTC
MEAN_ELEMENT_THEORY = SGP/SGP4

EPOCH          = 2026-03-04T10:49:06.169440
MEAN_MOTION    = 15.80970892
ECCENTRICITY   = .0001632
INCLINATION    = 97.2829
RA_OF_ASC_NODE = 249.7535
ARG_OF_PERICENTER = 86.2355
MEAN_ANOMALY   = 273.9100

EPHEMERIS_TYPE = 0
CLASSIFICATION_TYPE = U
NORAD_CAT_ID   = 67812
ELEMENT_SET_NO = 999
REV_AT_EPOCH   = 396
BSTAR          = .19906E-2
MEAN_MOTION_DOT = .402105E-2
MEAN_MOTION_DDOT = 0

