STARLINK-36773          
1 67801U 26032E   26063.41668981  .00107482  00000+0  71522-3 0  9996
2 67801  97.2836 249.6522 0001259  79.4470 285.8037 15.75099959  3877
STARLINK-36739          
1 67802U 26032F   26063.46238505 -.00397630  00000+0 -22362-2 0  9992
2 67802  97.2834 249.7395 0001921 153.1218 207.0150 15.80165527  3964
STARLINK-36768          
1 67803U 26032G   26063.41668981  .00094846  00000+0  63158-3 0  9993
2 67803  97.2837 249.6663 0001502  82.4073 316.8279 15.75121659  3933
STARLINK-36792          
1 67804U 26032H   26063.41668981  .00154944  00000+0  10251-2 0  9995
2 67804  97.2836 249.6608 0001576  69.3576 315.8912 15.75095612  3870
STARLINK-36782          
1 67805U 26032J   26063.46054881  .00487218  00000+0  23851-2 0  9992
2 67805  97.2829 249.7416 0001535  89.2220 270.9224 15.80997775  3967
STARLINK-36389          
1 67806U 26032K   26063.41668981  .00093162  00000+0  62057-3 0  9993
2 67806  97.2836 249.6869 0001754  78.3996  10.8282 15.75118644  3935
STARLINK-36382          
1 67807U 26032L   26063.41668981  .00132475  00000+0  87728-3 0  9997
2 67807  97.2839 249.6923 0001801  88.6646  12.5557 15.75138151  3871
STARLINK-36811          
1 67808U 26032M   26063.45723977  .00479577  00000+0  23500-2 0  9993
2 67808  97.2827 249.7457 0001557  81.1803 278.9642 15.80996644  3961
STARLINK-36795          
1 67809U 26032N   26063.41668981  .00126040  00000+0  83641-3 0  9990
2 67809  97.2834 249.6749 0001539  64.3900 356.8574 15.75108492  3931
STARLINK-36807          
1 67810U 26032P   26063.45523640 -.00115085  00000+0 -61627-3 0  9997
2 67810  97.2826 249.7474 0001657 121.3154 238.8277 15.80519875  3965
STARLINK-36733          
1 67811U 26032Q   26063.45394184  .00122021  00000+0  62802-3 0  9999
2 67811  97.2832 249.7491 0001357  79.0597 281.0824 15.80846539  3967
STARLINK-36377          
1 67812U 26032R   26063.45076585  .00402105  00000+0  19906-2 0  9992
2 67812  97.2829 249.7535 0001632  86.2355 273.9100 15.80970892  3968
